OBJECT_NAME,OBJECT_ID,EPOCH,MEAN_MOTION,ECCENTRICITY,INCLINATION,RA_OF_ASC_NODE,ARG_OF_PERICENTER,MEAN_ANOMALY,EPHEMERIS_TYPE,CLASSIFICATION_TYPE,NORAD_CAT_ID,ELEMENT_SET_NO,REV_AT_EPOCH,BSTAR,MEAN_MOTION_DOT,MEAN_MOTION_DDOT
INTELSAT 23 (IS-23),2012-057A,2026-06-27T12:15:15.793344,1.00271200,.0000258,0.0118,37.5159,123.7990,245.1086,0,U,38867,999,5005,0,-.273E-5,0
FM-6,2013-058A,2026-06-27T11:57:10.027008,1.00270900,.0001663,0.0169,45.6124,135.3473,157.6340,0,U,39360,999,4617,0,-.4E-7,0
INTELSAT 30 (IS-30),2014-062A,2026-06-27T06:55:19.144992,1.00271048,.0001527,0.0235,49.7457,347.5431,246.8893,0,U,40271,999,689,0,-.139E-5,0
DIRECTV 14,2014-078B,2026-06-27T12:02:02.059872,1.00270970,.0000253,0.0109,23.0135,21.8592,312.0088,0,U,40333,999,4214,0,-.114E-5,0
DIRECTV 15,2015-026A,2026-06-27T08:35:45.976128,1.00271717,.0000463,0.0172,59.5640,14.4630,227.5098,0,U,40663,999,4056,0,-.91E-6,0
SKY MEXICO-1,2015-026B,2026-06-27T12:07:53.999040,1.00271947,.000261,0.0165,347.2512,125.8998,265.6410,0,U,40664,999,4055,0,-.223E-5,0
INTELSAT 34 (IS-34),2015-039A,2026-06-27T10:31:54.923232,1.00274669,.0000588,0.0112,3.8798,37.0581,337.0938,0,U,40874,999,3973,0,-.274E-5,0
INTELSAT 31 (IS-31),2016-035A,2026-06-27T06:55:19.144992,1.00271510,.0000609,0.0143,291.4100,329.9596,22.8092,0,U,41581,999,3678,0,-.139E-5,0
INTELSAT 36 (IS-36),2016-053A,2026-06-27T04:16:39.580032,1.00263988,.0002427,0.0110,8.7270,344.1740,55.0639,0,U,41747,999,3605,0,-.11E-6,0
INTELSAT 32E (IS-32E),2017-007B,2026-06-27T12:18:00.528768,1.00269458,.0001011,0.0041,32.2744,326.4793,58.1881,0,U,41945,999,3432,0,-.257E-5,0
INTELSAT 35E (IS-35E),2017-041A,2026-06-27T10:37:54.348096,1.00269000,.0002388,0.0280,28.1595,69.9449,302.4367,0,U,42818,999,3291,0,0,0
INTELSAT 37E (IS-37E),2017-059A,2026-06-27T10:42:38.894400,1.00271419,.0002884,0.0192,22.8067,71.8679,323.5451,0,U,42950,999,3216,0,-.129E-5,0
AZERSPACE 2 (IS-38),2018-074A,2026-06-27T04:09:55.227168,1.00270667,.00017092,0.0274,17.8346,80.2276,284.8179,0,U,43632,999,2854,0,0,0
HORIZONS-3E,2018-074B,2026-06-27T12:32:38.723424,1.00272678,.0000492,0.0209,187.1225,110.2798,335.4039,0,U,43633,999,2844,0,-.18E-6,0
AT&T T-16,2019-034A,2026-06-27T08:36:15.929280,1.00271481,.0000479,0.0175,60.9255,274.1560,328.5977,0,U,44333,999,2573,0,-.104E-5,0
INTELSAT 39 (IS-39),2019-049B,2026-06-27T04:14:39.772608,1.00270156,.00008954,0.0261,10.2979,340.7590,49.8511,0,U,44476,999,2522,0,0,0
GALAXY 30 (G-30),2020-056C,2026-06-27T11:54:47.752992,1.00271006,.0002296,0.0286,23.0886,71.2723,234.9292,0,U,46114,999,2139,0,0,0
GALAXY 33 (G-33),2022-128A,2026-06-27T11:52:25.480704,1.00271753,.0002075,0.0102,24.9906,67.1691,228.5487,0,U,54026,999,1384,0,.91E-6,0
GALAXY 34 (G-34),2022-128B,2026-06-27T08:25:38.730144,1.00267218,.0001913,0.0113,44.0196,61.1861,167.6565,0,U,54027,999,1401,0,.71E-6,0
GALAXY 31 (G-31),2022-153A,2026-06-27T12:43:33.644064,1.00270062,.0001649,0.0210,29.1576,72.8926,243.4747,0,U,54243,999,723,0,0,0
GALAXY 32 (G-32),2022-153B,2026-06-27T08:39:00.666432,1.00271924,.0002081,0.0131,34.8965,12.6282,266.7021,0,U,54244,999,1324,0,-.163E-5,0
GALAXY 35 (G-35),2022-170A,2026-06-27T12:03:46.893312,1.00269464,.0002224,0.0204,18.2658,77.6413,267.5403,0,U,54741,999,1299,0,0,0
GALAXY 36 (G-36),2022-170B,2026-06-27T12:05:01.772736,1.00271431,.0002885,0.0347,118.0163,331.5706,278.2858,0,U,54742,999,1287,0,-.173E-5,0
GALAXY 37 (G-37),2023-112A,2026-06-27T11:54:10.314144,1.00272082,.0002254,0.0166,56.2332,37.3969,233.5185,0,U,57493,999,1064,0,.6E-6,0
