INTELSAT 23 (IS-23)     
1 38867U 12057A   26178.51059946 -.00000273  00000+0  00000+0 0  9991
2 38867   0.0118  37.5159 0000258 123.7990 245.1086  1.00271200 50059
FM-6                    
1 39360U 13058A   26178.49803272 -.00000004  00000+0  00000+0 0  9990
2 39360   0.0169  45.6124 0001663 135.3473 157.6340  1.00270900 46176
INTELSAT 30 (IS-30)     
1 40271U 14062A   26178.28841603 -.00000139  00000+0  00000+0 0  9995
2 40271   0.0235  49.7457 0001527 347.5431 246.8893  1.00271048  6890
DIRECTV 14              
1 40333U 14078B   26178.50141273 -.00000114  00000+0  00000+0 0  9995
2 40333   0.0109  23.0135 0000253  21.8592 312.0088  1.00270970 42145
DIRECTV 15              
1 40663U 15026A   26178.35817102 -.00000091  00000+0  00000+0 0  9993
2 40663   0.0172  59.5640 0000463  14.4630 227.5098  1.00271717 40565
SKY MEXICO-1            
1 40664U 15026B   26178.50548610 -.00000223  00000+0  00000+0 0  9993
2 40664   0.0165 347.2512 0002610 125.8998 265.6410  1.00271947 40558
INTELSAT 34 (IS-34)     
1 40874U 15039A   26178.43883013 -.00000274  00000+0  00000+0 0  9997
2 40874   0.0112   3.8798 0000588  37.0581 337.0938  1.00274669 39739
INTELSAT 31 (IS-31)     
1 41581U 16035A   26178.28841603 -.00000139  00000+0  00000+0 0  9992
2 41581   0.0143 291.4100 0000609 329.9596  22.8092  1.00271510 36788
INTELSAT 36 (IS-36)     
1 41747U 16053A   26178.17823588 -.00000011  00000+0  00000+0 0  9995
2 41747   0.0110   8.7270 0002427 344.1740  55.0639  1.00263988 36058
INTELSAT 32E (IS-32E)   
1 41945U 17007B   26178.51250612 -.00000257  00000+0  00000+0 0  9997
2 41945   0.0041  32.2744 0001011 326.4793  58.1881  1.00269458 34327
INTELSAT 35E (IS-35E)   
1 42818U 17041A   26178.44299014  .00000000  00000+0  00000+0 0  9991
2 42818   0.0280  28.1595 0002388  69.9449 302.4367  1.00269000 32915
INTELSAT 37E (IS-37E)   
1 42950U 17059A   26178.44628350 -.00000129  00000+0  00000+0 0  9999
2 42950   0.0192  22.8067 0002884  71.8679 323.5451  1.00271419 32169
AZERSPACE 2 (IS-38)     
1 43632U 18074A   26178.17355587  .00000000  00000+0  00000+0 0  9991
2 43632   0.0274  17.8346 0001709  80.2276 284.8179  1.00270667 28541
HORIZONS-3E             
1 43633U 18074B   26178.52267041 -.00000018  00000+0  00000+0 0  9998
2 43633   0.0209 187.1225 0000492 110.2798 335.4039  1.00272678 28449
AT&T T-16               
1 44333U 19034A   26178.35851770 -.00000104  00000+0  00000+0 0  9998
2 44333   0.0175  60.9255 0000479 274.1560 328.5977  1.00271481 25736
INTELSAT 39 (IS-39)     
1 44476U 19049B   26178.17684922  .00000000  00000+0  00000+0 0  9999
2 44476   0.0261  10.2979 0000895 340.7590  49.8511  1.00270156 25225
GALAXY 30 (G-30)        
1 46114U 20056C   26178.49638603  .00000000  00000+0  00000+0 0  9990
2 46114   0.0286  23.0886 0002296  71.2723 234.9292  1.00271006 21395
GALAXY 33 (G-33)        
1 54026U 22128A   26178.49473936  .00000091  00000+0  00000+0 0  9999
2 54026   0.0102  24.9906 0002075  67.1691 228.5487  1.00271753 13844
GALAXY 34 (G-34)        
1 54027U 22128B   26178.35114271  .00000071  00000+0  00000+0 0  9997
2 54027   0.0113  44.0196 0001913  61.1861 167.6565  1.00267218 14015
GALAXY 31 (G-31)        
1 54243U 22153A   26178.53025051  .00000000  00000+0  00000+0 0  9994
2 54243   0.0210  29.1576 0001649  72.8926 243.4747  1.00270062  7238
GALAXY 32 (G-32)        
1 54244U 22153B   26178.36042438 -.00000163  00000+0  00000+0 0  9995
2 54244   0.0131  34.8965 0002081  12.6282 266.7021  1.00271924 13243
GALAXY 35 (G-35)        
1 54741U 22170A   26178.50262608  .00000000  00000+0  00000+0 0  9994
2 54741   0.0204  18.2658 0002224  77.6413 267.5403  1.00269464 12997
GALAXY 36 (G-36)        
1 54742U 22170B   26178.50349274 -.00000173  00000+0  00000+0 0  9992
2 54742   0.0347 118.0163 0002885 331.5706 278.2858  1.00271431 12873
GALAXY 37 (G-37)        
1 57493U 23112A   26178.49595271  .00000060  00000+0  00000+0 0  9997
2 57493   0.0166  56.2332 0002254  37.3969 233.5185  1.00272082 10644
